0 FENGYUN 1C DEB
1 30742U 99025ATC 13282.04156351  .00000980  00000-0  71959-3 0  9601
2 30742 099.2254 305.9393 0077919 296.2975 116.0524 13.96810621337766
0 FENGYUN 1C DEB
1 30742U 99025ATC 13285.63731197  .00001159  00000-0  84458-3 0  9625
2 30742 099.2246 309.5459 0078009 286.3643 197.4981 13.96816861338261
0 FENGYUN 1C DEB
1 30742U 99025ATC 13286.64118015  .00001310  00000-0  95094-3 0  9633
2 30742 099.2244 310.5529 0078110 283.5811 205.5405 13.96818471338405
0 FENGYUN 1C DEB
1 30742U 99025ATC 13289.06328350  .00001607  00000-0  11585-2 0  9649
2 30742 099.2241 312.9820 0078253 276.9009 145.3052 13.96827120338742
0 FENGYUN 1C DEB
1 30742U 99025ATC 13290.65182115  .00001663  00000-0  11978-2 0  9652
2 30742 099.2241 314.5748 0078315 272.5341 213.4331 13.96832019338963
0 FENGYUN 1C DEB
1 30742U 99025ATC 13291.65477679  .00001699  00000-0  12230-2 0  9667
2 30742 099.2241 315.5805 0078375 269.7819 216.9124 13.96835098339107
0 FENGYUN 1C DEB
1 30742U 99025ATC 13293.00165140  .00001749  00000-0  12573-2 0  9672
2 30742 099.2243 316.9312 0078558 266.0741 149.8535 13.96839174339293
0 FENGYUN 1C DEB
1 30742U 99025ATC 13294.00472142  .00001719  00000-0  12366-2 0  9684
2 30742 099.2244 317.9370 0078574 263.3688 153.8866 13.96844060339435
0 FENGYUN 1C DEB
1 30742U 99025ATC 13295.00835403  .00001740  00000-0  12508-2 0  9691
2 30742 099.2245 318.9435 0078675 260.6279 160.7960 13.96847664339577
